$$SOE
2460154.500000000, A.D. 2023-Jul-29 00:00:00.0000, -3.698277223814611E+08, -1.647564533634839E+08, 2.392628159798230E+07,
2460161.500000000, A.D. 2023-Aug-05 00:00:00.0000, -3.648550451781338E+08, -1.744892423791256E+08, 2.311836760979461E+07,
2460168.500000000, A.D. 2023-Aug-12 00:00:00.0000, -3.596160003293287E+08, -1.840946246374096E+08, 2.229357376722306E+07,
2460175.500000000, A.D. 2023-Aug-19 00:00:00.0000, -3.541134803118838E+08, -1.935651092051342E+08, 2.145244450380262E+07,
2460182.500000000, A.D. 2023-Aug-26 00:00:00.0000, -3.483505956292691E+08, -2.028932533187446E+08, 2.059554037035787E+07,
2460189.500000000, A.D. 2023-Sep-02 00:00:00.0000, -3.423306754057233E+08, -2.120716690958863E+08, 1.972343780997121E+07,
2460196.500000000, A.D. 2023-Sep-09 00:00:00.0000, -3.360572677532696E+08, -2.210930304845155E+08, 1.883672889880466E+07,
2460203.500000000, A.D. 2023-Sep-16 00:00:00.0000, -3.295341397330115E+08, -2.299500805009401E+08, 1.793602103207631E+07,
2460210.500000000, A.D. 2023-Sep-23 00:00:00.0000, -3.227652764842339E+08, -2.386356384626057E+08, 1.702193653997497E+07,
2460217.500000000, A.D. 2023-Sep-30 00:00:00.0000, -3.157548798505591E+08, -2.471426060164179E+08, 1.609511236155212E+07,
2460224.500000000, A.D. 2023-Oct-07 00:00:00.0000, -3.085073688460076E+08, -2.554639724964065E+08, 1.515619994767509E+07,
2460231.500000000, A.D. 2023-Oct-14 00:00:00.0000, -3.010273809113754E+08, -2.635928229158284E+08, 1.420586502653643E+07,
2460238.500000000, A.D. 2023-Oct-21 00:00:00.0000, -2.933197707250704E+08, -2.715223469825363E+08, 1.324478706652193E+07,
2460245.500000000, A.D. 2023-Oct-28 00:00:00.0000, -2.853896079852920E+08, -2.792458468661106E+08, 1.227365875194028E+07,
2460252.500000000, A.D. 2023-Nov-04 00:00:00.0000, -2.772421754045299E+08, -2.867567444738892E+08, 1.129318552338551E+07,
2460259.500000000, A.D. 2023-Nov-11 00:00:00.0000, -2.688829667292750E+08, -2.940485888226784E+08, 1.030408511738542E+07,
2460266.500000000, A.D. 2023-Nov-18 00:00:00.0000, -2.603176845570127E+08, -3.011150635582418E+08, 9.307087079951018E+06,
2460273.500000000, A.D. 2023-Nov-25 00:00:00.0000, -2.515522378711154E+08, -3.079499945877082E+08, 8.302932249383509E+06,
2460280.500000000, A.D. 2023-Dec-02 00:00:00.0000, -2.425927392600713E+08, -3.145473578225754E+08, 7.292372205172092E+06,
2460287.500000000, A.D. 2023-Dec-09 00:00:00.0000, -2.334455017381978E+08, -3.209012870764883E+08, 6.276168671374425E+06,
2460294.500000000, A.D. 2023-Dec-16 00:00:00.0000, -2.241170348756363E+08, -3.270060820897979E+08, 5.255092849441200E+06,
2460301.500000000, A.D. 2023-Dec-23 00:00:00.0000, -2.146140398851635E+08, -3.328562159774138E+08, 4.229924704999357E+06,
2460308.500000000, A.D. 2023-Dec-30 00:00:00.0000, -2.049434050024224E+08, -3.384463410336317E+08, 3.201452417547360E+06,
2460315.500000000, A.D. 2024-Jan-06 00:00:00.0000, -1.951122029284427E+08, -3.437712952373679E+08, 2.170471962893561E+06,
2460322.500000000, A.D. 2024-Jan-13 00:00:00.0000, -1.851276871598605E+08, -3.488261112493540E+08, 1.137786389858425E+06,
2460329.500000000, A.D. 2024-Jan-20 00:00:00.0000, -1.749972859845826E+08, -3.536060248017553E+08, 1.042049315598160E+05,
2460336.500000000, A.D. 2024-Jan-27 00:00:00.0000, -1.647285961745302E+08, -3.581064818105665E+08, -9.294578086576611E+05,
2460343.500000000, A.D. 2024-Feb-03 00:00:00.0000, -1.543293768073430E+08, -3.623231451392031E+08, -1.962382634092525E+06,
2460350.500000000, A.D. 2024-Feb-10 00:00:00.0000, -1.438075429430012E+08, -3.662519012818009E+08, -2.993746542712763E+06,
2460357.500000000, A.D. 2024-Feb-17 00:00:00.0000, -1.331711590186903E+08, -3.698888669348040E+08, -4.022723537488103E+06,
2460364.500000000, A.D. 2024-Feb-24 00:00:00.0000, -1.224284319271138E+08, -3.732303954205967E+08, -5.048485460143238E+06,
2460371.500000000, A.D. 2024-Mar-02 00:00:00.0000, -1.115877037513553E+08, -3.762730829781395E+08, -6.070202852611244E+06,
2460378.500000000, A.D. 2024-Mar-09 00:00:00.0000, -1.006574440233975E+08, -3.790137749690832E+08, -7.087045862889856E+06,
2460385.500000000, A.D. 2024-Mar-16 00:00:00.0000, -8.964624112090276E+07, -3.814495717884257E+08, -8.098185214120090E+06,
2460392.500000000, A.D. 2024-Mar-23 00:00:00.0000, -7.856279291853346E+07, -3.835778333552855E+08, -9.102793135246903E+06,
2460399.500000000, A.D. 2024-Mar-30 00:00:00.0000, -6.741589894832104E+07, -3.853961821922063E+08, -1.010004404821023E+07,
2460406.500000000, A.D. 2024-Apr-06 00:00:00.0000, -5.621445382540050E+07, -3.869025084411362E+08, -1.108911530868527E+07,
2460413.500000000, A.D. 2024-Apr-13 00:00:00.0000, -4.496743840057678E+07, -3.880949759627885E+08, -1.206918825602338E+07,
2460420.500000000, A.D. 2024-Apr-20 00:00:00.0000, -3.368390960633417E+07, -3.889720268275676E+08, -1.303944926441753E+07,
2460427.500000000, A.D. 2024-Apr-27 00:00:00.0000, -2.237299052902426E+07, -3.895323847440822E+08, -1.399909069999510E+07,
2460434.500000000, A.D. 2024-May-04 00:00:00.0000, -1.104386063596671E+07, -3.897750581135498E+08, -1.494731184729770E+07,
2460441.500000000, A.D. 2024-May-11 00:00:00.0000, 2.942540631810711E+05, -3.896993427973723E+08, -1.588331983318886E+07,
2460448.500000000, A.D. 2024-May-18 00:00:00.0000, 1.163209098443793E+07, -3.893048245623542E+08, -1.680633055179510E+07,
2460455.500000000, A.D. 2024-May-25 00:00:00.0000, 2.296036107302193E+07, -3.885913811983643E+08, -1.771556959120637E+07,
2460462.500000000, A.D. 2024-Jun-01 00:00:00.0000, 3.426975908275630E+07, -3.875591843561133E+08, -1.861027316996145E+07,
2460469.500000000, A.D. 2024-Jun-08 00:00:00.0000, 4.555097425647252E+07, -3.862087011203568E+08, -1.948968910552692E+07,
2460476.500000000, A.D. 2024-Jun-15 00:00:00.0000, 5.679470178393252E+07, -3.845406947667088E+08, -2.035307780450448E+07,
2460483.500000000, A.D. 2024-Jun-22 00:00:00.0000, 6.799165400773861E+07, -3.825562235201111E+08, -2.119971308387113E+07,
2460490.500000000, A.D. 2024-Jun-29 00:00:00.0000, 7.913256923084027E+07, -3.802566391278173E+08, -2.202888277490586E+07,
2460497.500000000, A.D. 2024-Jul-06 00:00:00.0000, 9.020822074702956E+07, -3.776435877104978E+08, -2.283988955182895E+07,
2460504.500000000, A.D. 2024-Jul-13 00:00:00.0000, 1.012094280209599E+08, -3.747190100635910E+08, -2.363205193069838E+07,
2460511.500000000, A.D. 2024-Jul-20 00:00:00.0000, 1.121270680090228E+08, -3.714851402590430E+08, -2.440470516014063E+07,
2460518.500000000, A.D. 2024-Jul-27 00:00:00.0000, 1.229520859421958E+08, -3.679445035071678E+08, -2.515720201995631E+07,
2460525.500000000, A.D. 2024-Aug-03 00:00:00.0000, 1.336755058211125E+08, -3.640999136560672E+08, -2.588891358142272E+07,
2460532.500000000, A.D. 2024-Aug-10 00:00:00.0000, 1.442884407659528E+08, -3.599544703378105E+08, -2.659922994334462E+07,
2460539.500000000, A.D. 2024-Aug-17 00:00:00.0000, 1.547821032445000E+08, -3.555115557455890E+08, -2.728756094510983E+07,
2460546.500000000, A.D. 2024-Aug-24 00:00:00.0000, 1.651478151822197E+08, -3.507748310704271E+08, -2.795333685993977E+07,
2460553.500000000, A.D. 2024-Aug-31 00:00:00.0000, 1.753770180472187E+08, -3.457482326664590E+08, -2.859600908287135E+07,
2460560.500000000, A.D. 2024-Sep-07 00:00:00.0000, 1.854612832539680E+08, -3.404359678285705E+08, -2.921505083562508E+07,
2460567.500000000, A.D. 2024-Sep-14 00:00:00.0000, 1.953923229494249E+08, -3.348425091991261E+08, -2.980995781375232E+07,
2460574.500000000, A.D. 2024-Sep-21 00:00:00.0000, 2.051619991305696E+08, -3.289725874042061E+08, -3.038024855519995E+07,
2460581.500000000, A.D. 2024-Sep-28 00:00:00.0000, 2.147623305841192E+08, -3.228311851585662E+08, -3.092546474829072E+07,
2460588.500000000, A.D. 2024-Oct-05 00:00:00.0000, 2.241855012991188E+08, -3.164235328500668E+08, -3.144517181470920E+07,
2460595.500000000, A.D. 2024-Oct-12 00:00:00.0000, 2.334238699749869E+08, -3.097551026399798E+08, -3.193895949024469E+07,
2460602.500000000, A.D. 2024-Oct-19 00:00:00.0000, 2.424699788569230E+08, -3.028316013687516E+08, -3.240644226420568E+07,
2460609.500000000, A.D. 2024-Oct-26 00:00:00.0000, 2.513165618483172E+08, -2.956589630872529E+08, -3.284725973927817E+07,
2460616.500000000, A.D. 2024-Nov-02 00:00:00.0000, 2.599565521393833E+08, -2.882433413794757E+08, -3.326107694661801E+07,
2460623.500000000, A.D. 2024-Nov-09 00:00:00.0000, 2.683830894318084E+08, -2.805911014721197E+08, -3.364758462234873E+07,
2460630.500000000, A.D. 2024-Nov-16 00:00:00.0000, 2.765895267716745E+08, -2.727088121464553E+08, -3.400649944709121E+07,
2460637.500000000, A.D. 2024-Nov-23 00:00:00.0000, 2.845694370278774E+08, -2.646032375193952E+08, -3.433756425675459E+07,
2460644.500000000, A.D. 2024-Nov-30 00:00:00.0000, 2.923166192181196E+08, -2.562813287562531E+08, -3.464054824758285E+07,
2460651.500000000, A.D. 2024-Dec-07 00:00:00.0000, 2.998251050982040E+08, -2.477502153181644E+08, -3.491524718026252E+07,
2460658.500000000, A.D. 2024-Dec-14 00:00:00.0000, 3.070891653223590E+08, -2.390171945473022E+08, -3.516148342062898E+07,
2460665.500000000, A.D. 2024-Dec-21 00:00:00.0000, 3.141033128494560E+08, -2.300897208573336E+08, -3.537910570615880E+07,
2460672.500000000, A.D. 2024-Dec-28 00:00:00.0000, 3.208623055592165E+08, -2.209753975183198E+08, -3.556798906175427E+07,
2460679.500000000, A.D. 2025-Jan-04 00:00:00.0000, 3.273611506705720E+08, -2.116819686793558E+08, -3.572803490897864E+07,
2460686.500000000, A.D. 2025-Jan-11 00:00:00.0000, 3.335951091397514E+08, -2.022173099901533E+08, -3.585917106647317E+07,
2460693.500000000, A.D. 2025-Jan-18 00:00:00.0000, 3.395596991213900E+08, -1.925894187622135E+08, -3.596135163312259E+07,
2460700.500000000, A.D. 2025-Jan-25 00:00:00.0000, 3.452506987373270E+08, -1.828064041656018E+08, -3.603455681575949E+07,
2460707.500000000, A.D. 2025-Feb-01 00:00:00.0000, 3.506641483450853E+08, -1.728764775125287E+08, -3.607879272202578E+07,
2460714.500000000, A.D. 2025-Feb-08 00:00:00.0000, 3.557963523683180E+08, -1.628079426289102E+08, -3.609409112304944E+07,
$$EOE